{"type": "FeatureCollection", "features": [{"type": "Feature", "properties": {"norad_id": 66514, "name": "SENTINEL-6B", "group": "resource", "lat": -53.726306038559976, "lon": 43.9049138369469, "alt_km": 1316.1205801964643, "timestamp": "2025-12-01T03:58:49.206690+00:00", "meta": {"OBJECT_NAME": "SENTINEL-6B", "OBJECT_ID": "2025-264A", "EPOCH": "2025-11-30T17:23:33.679104", "MEAN_MOTION": 12.85877052, "ECCENTRICITY": 0.0011509, "INCLINATION": 66.0386, "RA_OF_ASC_NODE": 187.5337, "ARG_OF_PERICENTER": 268.9964, "MEAN_ANOMALY": 90.9736, "EPHEMERIS_TYPE": 0, "CLASSIFICATION_TYPE": "U", "NORAD_CAT_ID": 66514, "ELEMENT_SET_NO": 999, "REV_AT_EPOCH": 174, "BSTAR": 0.00020915, "MEAN_MOTION_DOT": -1e-07, "MEAN_MOTION_DDOT": 0, "GROUP": "resource"}, "tle": {"line1": "1 66514U 25264A   25334.72469536 -.00000010  00000+0  20915-3 0  9991", "line2": "2 66514  66.0386 187.5337 0011509 268.9964  90.9736 12.85877052  1748"}}, "geometry": {"type": "Point", "coordinates": [43.9049138369469, -53.726306038559976]}}, {"type": "Feature", "properties": {"norad_id": 22490, "name": "SCD 1", "group": "resource", "lat": 20.75596300812397, "lon": 44.654422172783796, "alt_km": 758.0948225040192, "timestamp": "2025-12-01T03:58:49.206731+00:00", "meta": {"OBJECT_NAME": "SCD 1", "OBJECT_ID": "1993-009B", "EPOCH": "2025-11-30T18:31:05.616192", "MEAN_MOTION": 14.45984836, "ECCENTRICITY": 0.0041921, "INCLINATION": 24.9711, "RA_OF_ASC_NODE": 352.5649, "ARG_OF_PERICENTER": 197.7666, "MEAN_ANOMALY": 323.1878, "EPHEMERIS_TYPE": 0, "CLASSIFICATION_TYPE": "U", "NORAD_CAT_ID": 22490, "ELEMENT_SET_NO": 999, "REV_AT_EPOCH": 73236, "BSTAR": 8.8914e-05, "MEAN_MOTION_DOT": 5.11e-06, "MEAN_MOTION_DDOT": 0, "GROUP": "resource"}, "tle": {"line1": "1 22490U 93009B   25334.77159278  .00000511  00000+0  88914-4 0  9991", "line2": "2 22490  24.9711 352.5649 0041921 197.7666 323.1878 14.45984836732361"}}, "geometry": {"type": "Point", "coordinates": [44.654422172783796, 20.75596300812397]}}, {"type": "Feature", "properties": {"norad_id": 25397, "name": "TECHSAT 1B (GO-32)", "group": "resource", "lat": -72.06520203104894, "lon": 108.82437731698263, "alt_km": 819.5088112499398, "timestamp": "2025-12-01T03:58:49.206748+00:00", "meta": {"OBJECT_NAME": "TECHSAT 1B (GO-32)", "OBJECT_ID": "1998-043D", "EPOCH": "2025-11-30T13:18:09.038592", "MEAN_MOTION": 14.24371503, "ECCENTRICITY": 0.000228, "INCLINATION": 98.9913, "RA_OF_ASC_NODE": 317.4857, "ARG_OF_PERICENTER": 77.2295, "MEAN_ANOMALY": 282.9137, "EPHEMERIS_TYPE": 0, "CLASSIFICATION_TYPE": "U", "NORAD_CAT_ID": 25397, "ELEMENT_SET_NO": 999, "REV_AT_EPOCH": 42305, "BSTAR": 6.8852e-05, "MEAN_MOTION_DOT": 1.13e-06, "MEAN_MOTION_DDOT": 0, "GROUP": "resource"}, "tle": {"line1": "1 25397U 98043D   25334.55427128  .00000113  00000+0  68852-4 0  9998", "line2": "2 25397  98.9913 317.4857 0002280  77.2295 282.9137 14.24371503423052"}}, "geometry": {"type": "Point", "coordinates": [108.82437731698263, -72.06520203104894]}}, {"type": "Feature", "properties": {"norad_id": 25504, "name": "SCD 2", "group": "resource", "lat": 22.798138072959045, "lon": -31.186642899443743, "alt_km": 732.5613519219041, "timestamp": "2025-12-01T03:58:49.206761+00:00", "meta": {"OBJECT_NAME": "SCD 2", "OBJECT_ID": "1998-060A", "EPOCH": "2025-11-30T19:28:17.336928", "MEAN_MOTION": 14.45412509, "ECCENTRICITY": 0.0016785, "INCLINATION": 24.994, "RA_OF_ASC_NODE": 215.4496, "ARG_OF_PERICENTER": 186.3591, "MEAN_ANOMALY": 238.6703, "EPHEMERIS_TYPE": 0, "CLASSIFICATION_TYPE": "U", "NORAD_CAT_ID": 25504, "ELEMENT_SET_NO": 999, "REV_AT_EPOCH": 43159, "BSTAR": 7.2949e-05, "MEAN_MOTION_DOT": 4.43e-06, "MEAN_MOTION_DDOT": 0, "GROUP": "resource"}, "tle": {"line1": "1 25504U 98060A   25334.81131177  .00000443  00000+0  72949-4 0  9990", "line2": "2 25504  24.9940 215.4496 0016785 186.3591 238.6703 14.45412509431593"}}, "geometry": {"type": "Point", "coordinates": [-31.186642899443743, 22.798138072959045]}}, {"type": "Feature", "properties": {"norad_id": 25757, "name": "DLR-TUBSAT", "group": "resource", "lat": 28.388544999628486, "lon": -45.399013522824546, "alt_km": 725.5012162819112, "timestamp": "2025-12-01T03:58:49.206772+00:00", "meta": {"OBJECT_NAME": "DLR-TUBSAT", "OBJECT_ID": "1999-029B", "EPOCH": "2025-11-30T21:14:03.422976", "MEAN_MOTION": 14.52350192, "ECCENTRICITY": 0.0013277, "INCLINATION": 98.6555, "RA_OF_ASC_NODE": 319.0334, "ARG_OF_PERICENTER": 230.3671, "MEAN_ANOMALY": 129.6353, "EPHEMERIS_TYPE": 0, "CLASSIFICATION_TYPE": "U", "NORAD_CAT_ID": 25757, "ELEMENT_SET_NO": 999, "REV_AT_EPOCH": 40446, "BSTAR": 4.6335e-05, "MEAN_MOTION_DOT": 1.4e-06, "MEAN_MOTION_DDOT": 0, "GROUP": "resource"}, "tle": {"line1": "1 25757U 99029B   25334.88476184  .00000140  00000+0  46335-4 0  9997", "line2": "2 25757  98.6555 319.0334 0013277 230.3671 129.6353 14.52350192404460"}}, "geometry": {"type": "Point", "coordinates": [-45.399013522824546, 28.388544999628486]}}, {"type": "Feature", "properties": {"norad_id": 25994, "name": "TERRA", "group": "resource", "lat": 80.00331538663684, "lon": -100.02550046336096, "alt_km": 680.6373520513553, "timestamp": "2025-12-01T03:58:49.206785+00:00", "meta": {"OBJECT_NAME": "TERRA", "OBJECT_ID": "1999-068A", "EPOCH": "2025-11-30T19:44:08.244096", "MEAN_MOTION": 14.60929977, "ECCENTRICITY": 0.000334, "INCLINATION": 97.9766, "RA_OF_ASC_NODE": 26.9429, "ARG_OF_PERICENTER": 121.977, "MEAN_ANOMALY": 328.403, "EPHEMERIS_TYPE": 0, "CLASSIFICATION_TYPE": "U", "NORAD_CAT_ID": 25994, "ELEMENT_SET_NO": 999, "REV_AT_EPOCH": 38064, "BSTAR": 0.00011455, "MEAN_MOTION_DOT": 5.16e-06, "MEAN_MOTION_DDOT": 0, "GROUP": "resource"}, "tle": {"line1": "1 25994U 99068A   25334.82231764  .00000516  00000+0  11455-3 0  9991", "line2": "2 25994  97.9766  26.9429 0003340 121.9770 328.4030 14.60929977380649"}}, "geometry": {"type": "Point", "coordinates": [-100.02550046336096, 80.00331538663684]}}, {"type": "Feature", "properties": {"norad_id": 27004, "name": "MAROC-TUBSAT", "group": "resource", "lat": -72.93592767052475, "lon": -70.82412438580371, "alt_km": 994.3507229894494, "timestamp": "2025-12-01T03:58:49.206801+00:00", "meta": {"OBJECT_NAME": "MAROC-TUBSAT", "OBJECT_ID": "2001-056D", "EPOCH": "2025-11-30T11:15:06.599232", "MEAN_MOTION": 13.70251986, "ECCENTRICITY": 0.00191281, "INCLINATION": 99.7911, "RA_OF_ASC_NODE": 142.6989, "ARG_OF_PERICENTER": 292.8028, "MEAN_ANOMALY": 126.6977, "EPHEMERIS_TYPE": 0, "CLASSIFICATION_TYPE": "U", "NORAD_CAT_ID": 27004, "ELEMENT_SET_NO": 999, "REV_AT_EPOCH": 19897, "BSTAR": 3.8013032e-05, "MEAN_MOTION_DOT": -1.3e-07, "MEAN_MOTION_DDOT": 0, "GROUP": "resource"}, "tle": {"line1": "1 27004U 01056D   25334.46882638 -.00000013  00000+0  38013-4 0  9990", "line2": "2 27004  99.7911 142.6989 0019128 292.8028 126.6977 13.70251986198976"}}, "geometry": {"type": "Point", "coordinates": [-70.82412438580371, -72.93592767052475]}}, {"type": "Feature", "properties": {"norad_id": 27424, "name": "AQUA", "group": "resource", "lat": -63.93390262872846, "lon": -46.555084985406175, "alt_km": 695.147490090113, "timestamp": "2025-12-01T03:58:49.206819+00:00", "meta": {"OBJECT_NAME": "AQUA", "OBJECT_ID": "2002-022A", "EPOCH": "2025-11-30T20:12:05.298336", "MEAN_MOTION": 14.61762106, "ECCENTRICITY": 6.75e-05, "INCLINATION": 98.402, "RA_OF_ASC_NODE": 295.5288, "ARG_OF_PERICENTER": 103.6095, "MEAN_ANOMALY": 286.5906, "EPHEMERIS_TYPE": 0, "CLASSIFICATION_TYPE": "U", "NORAD_CAT_ID": 27424, "ELEMENT_SET_NO": 999, "REV_AT_EPOCH": 25429, "BSTAR": 0.00024437, "MEAN_MOTION_DOT": 1.17e-05, "MEAN_MOTION_DDOT": 0, "GROUP": "resource"}, "tle": {"line1": "1 27424U 02022A   25334.84172799  .00001170  00000+0  24437-3 0  9990", "line2": "2 27424  98.4020 295.5288 0000675 103.6095 286.5906 14.61762106254297"}}, "geometry": {"type": "Point", "coordinates": [-46.555084985406175, -63.93390262872846]}}, {"type": "Feature", "properties": {"norad_id": 28051, "name": "IRS-P6 (RESOURCESAT-1)", "group": "resource", "lat": 30.725993263076806, "lon": -158.9630981698447, "alt_km": 751.6942403309477, "timestamp": "2025-12-01T03:58:49.206849+00:00", "meta": {"OBJECT_NAME": "IRS-P6 (RESOURCESAT-1)", "OBJECT_ID": "2003-046A", "EPOCH": "2025-11-30T21:08:13.355232", "MEAN_MOTION": 14.36065303, "ECCENTRICITY": 0.006351, "INCLINATION": 98.2196, "RA_OF_ASC_NODE": 15.8364, "ARG_OF_PERICENTER": 216.4417, "MEAN_ANOMALY": 259.7916, "EPHEMERIS_TYPE": 0, "CLASSIFICATION_TYPE": "U", "NORAD_CAT_ID": 28051, "ELEMENT_SET_NO": 999, "REV_AT_EPOCH": 15206, "BSTAR": 8.4435e-05, "MEAN_MOTION_DOT": 2.1e-06, "MEAN_MOTION_DDOT": 0, "GROUP": "resource"}, "tle": {"line1": "1 28051U 03046A   25334.88071013  .00000210  00000+0  84435-4 0  9994", "line2": "2 28051  98.2196  15.8364 0063510 216.4417 259.7916 14.36065303152064"}}, "geometry": {"type": "Point", "coordinates": [-158.9630981698447, 30.725993263076806]}}, {"type": "Feature", "properties": {"norad_id": 28220, "name": "SHIYAN-1 (SY-1)", "group": "resource", "lat": 17.548836577084472, "lon": -141.45977008959835, "alt_km": 487.28911601035816, "timestamp": "2025-12-01T03:58:49.206873+00:00", "meta": {"OBJECT_NAME": "SHIYAN-1 (SY-1)", "OBJECT_ID": "2004-012A", "EPOCH": "2025-11-30T17:50:27.180096", "MEAN_MOTION": 15.27670719, "ECCENTRICITY": 0.00065, "INCLINATION": 97.8958, "RA_OF_ASC_NODE": 35.5776, "ARG_OF_PERICENTER": 9.6943, "MEAN_ANOMALY": 350.4419, "EPHEMERIS_TYPE": 0, "CLASSIFICATION_TYPE": "U", "NORAD_CAT_ID": 28220, "ELEMENT_SET_NO": 999, "REV_AT_EPOCH": 18073, "BSTAR": 0.00052323, "MEAN_MOTION_DOT": 0.0001409, "MEAN_MOTION_DDOT": 0, "GROUP": "resource"}, "tle": {"line1": "1 28220U 04012A   25334.74337014  .00014090  00000+0  52323-3 0  9998", "line2": "2 28220  97.8958  35.5776 0006500   9.6943 350.4419 15.27670719180737"}}, "geometry": {"type": "Point", "coordinates": [-141.45977008959835, 17.548836577084472]}}]}